STARLINK-1453           
1 45670U 20035P   25227.76691502 -.00000650  00000+0 -24750-4 0  9990
2 45670  53.0547 241.0443 0001205  81.7134 278.3992 15.06389999288005
STARLINK-1454           
1 45671U 20035Q   25228.37602548  .00000734  00000+0  68189-4 0  9996
2 45671  53.0549 268.3078 0001507  85.4562 274.6600 15.06404593287377
STARLINK-1456           
1 45673U 20035S   25227.85998590 -.00000399  00000+0 -79023-5 0  9994
2 45673  53.0550 270.6277 0001098  76.0584 284.0527 15.06394085287718
STARLINK-1457           
1 45674U 20035T   25228.39813168  .00004732  00000+0  33649-3 0  9997
2 45674  53.0555 268.2071 0001620 115.2005 244.9152 15.06384364287396
STARLINK-1458           
1 45675U 20035U   25228.38707254  .00000747  00000+0  69052-4 0  9995
2 45675  53.0544 268.2586 0001321  74.1998 285.9136 15.06397450287373
STARLINK-1460           
1 45676U 20035V   25228.35758816  .00000053  00000+0  22461-4 0  9996
2 45676  53.0546 268.3899 0001332  91.1753 268.9388 15.06390376287374
STARLINK-1392           
1 45677U 20035W   25228.36864618  .00000035  00000+0  21257-4 0  9998
2 45677  53.0548 268.3408 0001194  77.5625 282.5498 15.06394627287372
STARLINK-1394           
1 45679U 20035Y   25228.36588330  .00000946  00000+0  82405-4 0  9997
2 45679  53.0536 258.3538 0001426  88.8773 271.2379 15.06396490287521
STARLINK-1402           
1 45685U 20035AE  25228.33030415  .00000371  00000+0  43824-4 0  9991
2 45685  53.0542 252.9326 0001228  84.0672 276.0457 15.06394153287597
STARLINK-1404           
1 45686U 20035AF  25228.39168725 -.00000523  00000+0 -16217-4 0  9991
2 45686  53.0545 258.2416 0001321  77.1519 282.9618 15.06395022287521
STARLINK-1413           
1 45689U 20035AJ  25228.41010884 -.00000100  00000+0  12208-4 0  9995
2 45689  53.0540 258.1523 0001189  76.8063 283.3058 15.06399326287523
STARLINK-1417           
1 45693U 20035AN  25228.34008367  .00000707  00000+0  66317-4 0  9997
2 45693  53.0539 258.4720 0001625  70.7628 289.3537 15.06407907287515
STARLINK-1420           
1 45695U 20035AQ  25228.40732217 -.00000054  00000+0  15248-4 0  9997
2 45695  53.0536 238.1593 0001168  83.5316 276.5805 15.06393659287801
STARLINK-1422           
1 45696U 20035AR  25227.82036436  .00000950  00000+0  82660-4 0  9999
2 45696  53.0542 260.8054 0001391  88.9534 271.1614 15.06390916287837
STARLINK-1351           
1 45697U 20035AS  25228.32719183  .00001245  00000+0  10252-3 0  9998
2 45697  53.0544 238.5280 0001587  88.4455 271.6715 15.06384657287794
STARLINK-1398           
1 45699U 20035AU  25228.23387090  .00018295  00000+0  49801-3 0  9993
2 45699  53.0548 218.5669 0010093 358.4973   1.5998 15.37544285288104
STARLINK-1400           
1 45700U 20035AV  25228.30138259  .00000935  00000+0  81653-4 0  9999
2 45700  53.0540 238.6443 0001173  82.6389 277.4733 15.06407023287786
