[{"OBJECT_NAME":"STARLINK-1453","OBJECT_ID":"2020-035P","EPOCH":"2025-08-15T18:24:21.457728","MEAN_MOTION":15.06389999,"ECCENTRICITY":0.0001205,"INCLINATION":53.0547,"RA_OF_ASC_NODE":241.0443,"ARG_OF_PERICENTER":81.7134,"MEAN_ANOMALY":278.3992,"EPHEMERIS_TYPE":0,"CLASSIFICATION_TYPE":"U","NORAD_CAT_ID":45670,"ELEMENT_SET_NO":999,"REV_AT_EPOCH":28800,"BSTAR":-2.475e-5,"MEAN_MOTION_DOT":-6.5e-6,"MEAN_MOTION_DDOT":0},{"OBJECT_NAME":"STARLINK-1454","OBJECT_ID":"2020-035Q","EPOCH":"2025-08-16T09:01:28.601472","MEAN_MOTION":15.06404593,"ECCENTRICITY":0.0001507,"INCLINATION":53.0549,"RA_OF_ASC_NODE":268.3078,"ARG_OF_PERICENTER":85.4562,"MEAN_ANOMALY":274.66,"EPHEMERIS_TYPE":0,"CLASSIFICATION_TYPE":"U","NORAD_CAT_ID":45671,"ELEMENT_SET_NO":999,"REV_AT_EPOCH":28737,"BSTAR":6.8189e-5,"MEAN_MOTION_DOT":7.34e-6,"MEAN_MOTION_DDOT":0},{"OBJECT_NAME":"STARLINK-1456","OBJECT_ID":"2020-035S","EPOCH":"2025-08-15T20:38:22.781760","MEAN_MOTION":15.06394085,"ECCENTRICITY":0.0001098,"INCLINATION":53.055,"RA_OF_ASC_NODE":270.6277,"ARG_OF_PERICENTER":76.0584,"MEAN_ANOMALY":284.0527,"EPHEMERIS_TYPE":0,"CLASSIFICATION_TYPE":"U","NORAD_CAT_ID":45673,"ELEMENT_SET_NO":999,"REV_AT_EPOCH":28771,"BSTAR":-7.9023e-6,"MEAN_MOTION_DOT":-3.99e-6,"MEAN_MOTION_DDOT":0},{"OBJECT_NAME":"STARLINK-1457","OBJECT_ID":"2020-035T","EPOCH":"2025-08-16T09:33:18.577152","MEAN_MOTION":15.06384364,"ECCENTRICITY":0.000162,"INCLINATION":53.0555,"RA_OF_ASC_NODE":268.2071,"ARG_OF_PERICENTER":115.2005,"MEAN_ANOMALY":244.9152,"EPHEMERIS_TYPE":0,"CLASSIFICATION_TYPE":"U","NORAD_CAT_ID":45674,"ELEMENT_SET_NO":999,"REV_AT_EPOCH":28739,"BSTAR":0.00033649,"MEAN_MOTION_DOT":4.732e-5,"MEAN_MOTION_DDOT":0},{"OBJECT_NAME":"STARLINK-1458","OBJECT_ID":"2020-035U","EPOCH":"2025-08-16T09:17:23.067456","MEAN_MOTION":15.0639745,"ECCENTRICITY":0.0001321,"INCLINATION":53.0544,"RA_OF_ASC_NODE":268.2586,"ARG_OF_PERICENTER":74.1998,"MEAN_ANOMALY":285.9136,"EPHEMERIS_TYPE":0,"CLASSIFICATION_TYPE":"U","NORAD_CAT_ID":45675,"ELEMENT_SET_NO":999,"REV_AT_EPOCH":28737,"BSTAR":6.9052e-5,"MEAN_MOTION_DOT":7.47e-6,"MEAN_MOTION_DDOT":0},{"OBJECT_NAME":"STARLINK-1460","OBJECT_ID":"2020-035V","EPOCH":"2025-08-16T08:34:55.617024","MEAN_MOTION":15.06390376,"ECCENTRICITY":0.0001332,"INCLINATION":53.0546,"RA_OF_ASC_NODE":268.3899,"ARG_OF_PERICENTER":91.1753,"MEAN_ANOMALY":268.9388,"EPHEMERIS_TYPE":0,"CLASSIFICATION_TYPE":"U","NORAD_CAT_ID":45676,"ELEMENT_SET_NO":999,"REV_AT_EPOCH":28737,"BSTAR":2.2461e-5,"MEAN_MOTION_DOT":5.3e-7,"MEAN_MOTION_DDOT":0},{"OBJECT_NAME":"STARLINK-1392","OBJECT_ID":"2020-035W","EPOCH":"2025-08-16T08:50:51.029952","MEAN_MOTION":15.06394627,"ECCENTRICITY":0.0001194,"INCLINATION":53.0548,"RA_OF_ASC_NODE":268.3408,"ARG_OF_PERICENTER":77.5625,"MEAN_ANOMALY":282.5498,"EPHEMERIS_TYPE":0,"CLASSIFICATION_TYPE":"U","NORAD_CAT_ID":45677,"ELEMENT_SET_NO":999,"REV_AT_EPOCH":28737,"BSTAR":2.1257e-5,"MEAN_MOTION_DOT":3.5e-7,"MEAN_MOTION_DDOT":0},{"OBJECT_NAME":"STARLINK-1394","OBJECT_ID":"2020-035Y","EPOCH":"2025-08-16T08:46:52.317120","MEAN_MOTION":15.0639649,"ECCENTRICITY":0.0001426,"INCLINATION":53.0536,"RA_OF_ASC_NODE":258.3538,"ARG_OF_PERICENTER":88.8773,"MEAN_ANOMALY":271.2379,"EPHEMERIS_TYPE":0,"CLASSIFICATION_TYPE":"U","NORAD_CAT_ID":45679,"ELEMENT_SET_NO":999,"REV_AT_EPOCH":28752,"BSTAR":8.2405e-5,"MEAN_MOTION_DOT":9.46e-6,"MEAN_MOTION_DDOT":0},{"OBJECT_NAME":"STARLINK-1402","OBJECT_ID":"2020-035AE","EPOCH":"2025-08-16T07:55:38.278560","MEAN_MOTION":15.06394153,"ECCENTRICITY":0.0001228,"INCLINATION":53.0542,"RA_OF_ASC_NODE":252.9326,"ARG_OF_PERICENTER":84.0672,"MEAN_ANOMALY":276.0457,"EPHEMERIS_TYPE":0,"CLASSIFICATION_TYPE":"U","NORAD_CAT_ID":45685,"ELEMENT_SET_NO":999,"REV_AT_EPOCH":28759,"BSTAR":4.3824e-5,"MEAN_MOTION_DOT":3.71e-6,"MEAN_MOTION_DDOT":0},{"OBJECT_NAME":"STARLINK-1404","OBJECT_ID":"2020-035AF","EPOCH":"2025-08-16T09:24:01.778400","MEAN_MOTION":15.06395022,"ECCENTRICITY":0.0001321,"INCLINATION":53.0545,"RA_OF_ASC_NODE":258.2416,"ARG_OF_PERICENTER":77.1519,"MEAN_ANOMALY":282.9618,"EPHEMERIS_TYPE":0,"CLASSIFICATION_TYPE":"U","NORAD_CAT_ID":45686,"ELEMENT_SET_NO":999,"REV_AT_EPOCH":28752,"BSTAR":-1.6217e-5,"MEAN_MOTION_DOT":-5.23e-6,"MEAN_MOTION_DDOT":0},{"OBJECT_NAME":"STARLINK-1413","OBJECT_ID":"2020-035AJ","EPOCH":"2025-08-16T09:50:33.403776","MEAN_MOTION":15.06399326,"ECCENTRICITY":0.0001189,"INCLINATION":53.054,"RA_OF_ASC_NODE":258.1523,"ARG_OF_PERICENTER":76.8063,"MEAN_ANOMALY":283.3058,"EPHEMERIS_TYPE":0,"CLASSIFICATION_TYPE":"U","NORAD_CAT_ID":45689,"ELEMENT_SET_NO":999,"REV_AT_EPOCH":28752,"BSTAR":1.2208e-5,"MEAN_MOTION_DOT":-1.0e-6,"MEAN_MOTION_DDOT":0},{"OBJECT_NAME":"STARLINK-1417","OBJECT_ID":"2020-035AN","EPOCH":"2025-08-16T08:09:43.229088","MEAN_MOTION":15.06407907,"ECCENTRICITY":0.0001625,"INCLINATION":53.0539,"RA_OF_ASC_NODE":258.472,"ARG_OF_PERICENTER":70.7628,"MEAN_ANOMALY":289.3537,"EPHEMERIS_TYPE":0,"CLASSIFICATION_TYPE":"U","NORAD_CAT_ID":45693,"ELEMENT_SET_NO":999,"REV_AT_EPOCH":28751,"BSTAR":6.6317e-5,"MEAN_MOTION_DOT":7.07e-6,"MEAN_MOTION_DDOT":0},{"OBJECT_NAME":"STARLINK-1420","OBJECT_ID":"2020-035AQ","EPOCH":"2025-08-16T09:46:32.635488","MEAN_MOTION":15.06393659,"ECCENTRICITY":0.0001168,"INCLINATION":53.0536,"RA_OF_ASC_NODE":238.1593,"ARG_OF_PERICENTER":83.5316,"MEAN_ANOMALY":276.5805,"EPHEMERIS_TYPE":0,"CLASSIFICATION_TYPE":"U","NORAD_CAT_ID":45695,"ELEMENT_SET_NO":999,"REV_AT_EPOCH":28780,"BSTAR":1.5248e-5,"MEAN_MOTION_DOT":-5.4e-7,"MEAN_MOTION_DDOT":0},{"OBJECT_NAME":"STARLINK-1422","OBJECT_ID":"2020-035AR","EPOCH":"2025-08-15T19:41:19.480704","MEAN_MOTION":15.06390916,"ECCENTRICITY":0.0001391,"INCLINATION":53.0542,"RA_OF_ASC_NODE":260.8054,"ARG_OF_PERICENTER":88.9534,"MEAN_ANOMALY":271.1614,"EPHEMERIS_TYPE":0,"CLASSIFICATION_TYPE":"U","NORAD_CAT_ID":45696,"ELEMENT_SET_NO":999,"REV_AT_EPOCH":28783,"BSTAR":8.266e-5,"MEAN_MOTION_DOT":9.5e-6,"MEAN_MOTION_DDOT":0},{"OBJECT_NAME":"STARLINK-1351","OBJECT_ID":"2020-035AS","EPOCH":"2025-08-16T07:51:09.374112","MEAN_MOTION":15.06384657,"ECCENTRICITY":0.0001587,"INCLINATION":53.0544,"RA_OF_ASC_NODE":238.528,"ARG_OF_PERICENTER":88.4455,"MEAN_ANOMALY":271.6715,"EPHEMERIS_TYPE":0,"CLASSIFICATION_TYPE":"U","NORAD_CAT_ID":45697,"ELEMENT_SET_NO":999,"REV_AT_EPOCH":28779,"BSTAR":0.00010252,"MEAN_MOTION_DOT":1.245e-5,"MEAN_MOTION_DDOT":0},{"OBJECT_NAME":"STARLINK-1398","OBJECT_ID":"2020-035AU","EPOCH":"2025-08-16T05:36:46.445760","MEAN_MOTION":15.37544285,"ECCENTRICITY":0.0010093,"INCLINATION":53.0548,"RA_OF_ASC_NODE":218.5669,"ARG_OF_PERICENTER":358.4973,"MEAN_ANOMALY":1.5998,"EPHEMERIS_TYPE":0,"CLASSIFICATION_TYPE":"U","NORAD_CAT_ID":45699,"ELEMENT_SET_NO":999,"REV_AT_EPOCH":28810,"BSTAR":0.00049801,"MEAN_MOTION_DOT":0.00018295,"MEAN_MOTION_DDOT":0},{"OBJECT_NAME":"STARLINK-1400","OBJECT_ID":"2020-035AV","EPOCH":"2025-08-16T07:13:59.455776","MEAN_MOTION":15.06407023,"ECCENTRICITY":0.0001173,"INCLINATION":53.054,"RA_OF_ASC_NODE":238.6443,"ARG_OF_PERICENTER":82.6389,"MEAN_ANOMALY":277.4733,"EPHEMERIS_TYPE":0,"CLASSIFICATION_TYPE":"U","NORAD_CAT_ID":45700,"ELEMENT_SET_NO":999,"REV_AT_EPOCH":28778,"BSTAR":8.1653e-5,"MEAN_MOTION_DOT":9.35e-6,"MEAN_MOTION_DDOT":0}]
